STARLINK-5031           
1 53889U 22119D   26073.93063599 -.00000067  00000+0  13849-4 0  9992
2 53889  53.2168 300.7444 0001488  84.8754 275.2408 15.08863003192474
STARLINK-5050           
1 53890U 22119E   26074.22270714  .00000016  00000+0  19071-4 0  9992
2 53890  53.2174 264.0663 0001404  93.2868 266.8285 15.08836960193018
STARLINK-5041           
1 53891U 22119F   26074.33335648  .00014466  00000+0  88966-3 0  9995
2 53891  53.2166 298.8480 0001662  98.8616 336.3606 15.10273629  5854
STARLINK-5046           
1 53892U 22119G   26073.90485545 -.00005270  00000+0 -31312-3 0  9998
2 53892  53.2168 300.5853 0001084 105.9131 254.1981 15.08856126192476
STARLINK-5052           
1 53893U 22119H   26073.91686989  .00002542  00000+0  17774-3 0  9998
2 53893  53.2175 300.6603 0001744  85.7937 274.3255 15.08841952192470
STARLINK-5043           
1 53894U 22119J   26073.91959397 -.00000653  00000+0 -22952-4 0  9993
2 53894  53.2180 300.6788 0001448  89.1395 270.9763 15.08843412192477
STARLINK-5032           
1 53895U 22119K   26074.04002589  .00082212  00000+0  50190-2 0  9993
2 53895  53.2186 300.0098 0000967  71.7659 288.3439 15.09595945192498
STARLINK-5037           
1 53896U 22119L   26073.90116449 -.00001061  00000+0 -48558-4 0  9991
2 53896  53.2175 300.5650 0001302  85.1040 275.0101 15.08853364192471
STARLINK-5035           
1 53897U 22119M   26073.91590636 -.00000555  00000+0 -16815-4 0  9995
2 53897  53.2170 300.6509 0000988  61.3067 298.8025 15.08836014192476
STARLINK-5044           
1 53898U 22119N   26073.89011798  .00000236  00000+0  32918-4 0  9996
2 53898  53.2168 300.4952 0001415  91.0362 269.0793 15.08842589192474
STARLINK-5042           
1 53899U 22119P   26073.89379984  .00000550  00000+0  52628-4 0  9990
2 53899  53.2175 300.5170 0001350  99.6758 260.4386 15.08842544192471
STARLINK-5045           
1 53900U 22119Q   26073.94898879 -.00000522  00000+0 -14710-4 0  9999
2 53900  53.2177 300.1499 0001234  90.1259 269.9874 15.08837657192485
STARLINK-5024           
1 53901U 22119R   26074.33335648  .00295029  43666-4  89838-3 0  9992
2 53901  53.2000 214.0593 0006014 338.1277 108.4512 15.91526770  6073
STARLINK-5021           
1 53902U 22119S   26074.21488276  .00001052  00000+0  84143-4 0  9992
2 53902  53.2149 249.0743 0001639  81.1006 279.0172 15.08846208193226
STARLINK-5022           
1 53903U 22119T   26073.89844672  .00000442  00000+0  45836-4 0  9990
2 53903  53.2171 300.5448 0001432  95.6056 264.5100 15.08845675192476
STARLINK-4787           
1 53904U 22119U   26073.94532092  .00002506  00000+0  17552-3 0  9993
2 53904  53.2172 300.1287 0001500 101.1161 259.0000 15.08835442192481
