[{"OBJECT_NAME":"STARLINK-5031","OBJECT_ID":"2022-119D","EPOCH":"2026-03-14T22:20:06.949536","MEAN_MOTION":15.08863003,"ECCENTRICITY":0.00014889,"INCLINATION":53.2168,"RA_OF_ASC_NODE":300.7444,"ARG_OF_PERICENTER":84.8754,"MEAN_ANOMALY":275.2408,"EPHEMERIS_TYPE":0,"CLASSIFICATION_TYPE":"U","NORAD_CAT_ID":53889,"ELEMENT_SET_NO":999,"REV_AT_EPOCH":19247,"BSTAR":1.3848962e-5,"MEAN_MOTION_DOT":-6.7e-7,"MEAN_MOTION_DDOT":0},{"OBJECT_NAME":"STARLINK-5050","OBJECT_ID":"2022-119E","EPOCH":"2026-03-15T05:20:41.896896","MEAN_MOTION":15.0883696,"ECCENTRICITY":0.00014044,"INCLINATION":53.2174,"RA_OF_ASC_NODE":264.0663,"ARG_OF_PERICENTER":93.2868,"MEAN_ANOMALY":266.8285,"EPHEMERIS_TYPE":0,"CLASSIFICATION_TYPE":"U","NORAD_CAT_ID":53890,"ELEMENT_SET_NO":999,"REV_AT_EPOCH":19301,"BSTAR":1.9070785e-5,"MEAN_MOTION_DOT":1.6e-7,"MEAN_MOTION_DDOT":0},{"OBJECT_NAME":"STARLINK-5041","OBJECT_ID":"2022-119F","EPOCH":"2026-03-15T08:00:01.999872","MEAN_MOTION":15.10273629,"ECCENTRICITY":0.00016627,"INCLINATION":53.2166,"RA_OF_ASC_NODE":298.848,"ARG_OF_PERICENTER":98.8616,"MEAN_ANOMALY":336.3606,"EPHEMERIS_TYPE":0,"CLASSIFICATION_TYPE":"U","NORAD_CAT_ID":53891,"ELEMENT_SET_NO":999,"REV_AT_EPOCH":585,"BSTAR":0.00088965894,"MEAN_MOTION_DOT":0.00014466,"MEAN_MOTION_DDOT":0},{"OBJECT_NAME":"STARLINK-5046","OBJECT_ID":"2022-119G","EPOCH":"2026-03-14T21:42:59.510880","MEAN_MOTION":15.08856126,"ECCENTRICITY":0.0001084,"INCLINATION":53.2168,"RA_OF_ASC_NODE":300.5853,"ARG_OF_PERICENTER":105.9131,"MEAN_ANOMALY":254.1981,"EPHEMERIS_TYPE":0,"CLASSIFICATION_TYPE":"U","NORAD_CAT_ID":53892,"ELEMENT_SET_NO":999,"REV_AT_EPOCH":19247,"BSTAR":-0.00031312243,"MEAN_MOTION_DOT":-5.27e-5,"MEAN_MOTION_DDOT":0},{"OBJECT_NAME":"STARLINK-5052","OBJECT_ID":"2022-119H","EPOCH":"2026-03-14T22:00:17.558496","MEAN_MOTION":15.08841952,"ECCENTRICITY":0.00017449,"INCLINATION":53.2175,"RA_OF_ASC_NODE":300.6603,"ARG_OF_PERICENTER":85.7937,"MEAN_ANOMALY":274.3255,"EPHEMERIS_TYPE":0,"CLASSIFICATION_TYPE":"U","NORAD_CAT_ID":53893,"ELEMENT_SET_NO":999,"REV_AT_EPOCH":19247,"BSTAR":0.00017774352,"MEAN_MOTION_DOT":2.542e-5,"MEAN_MOTION_DDOT":0},{"OBJECT_NAME":"STARLINK-5043","OBJECT_ID":"2022-119J","EPOCH":"2026-03-14T22:04:12.919008","MEAN_MOTION":15.08843412,"ECCENTRICITY":0.0001448,"INCLINATION":53.218,"RA_OF_ASC_NODE":300.6788,"ARG_OF_PERICENTER":89.1395,"MEAN_ANOMALY":270.9763,"EPHEMERIS_TYPE":0,"CLASSIFICATION_TYPE":"U","NORAD_CAT_ID":53894,"ELEMENT_SET_NO":999,"REV_AT_EPOCH":19247,"BSTAR":-2.2952223e-5,"MEAN_MOTION_DOT":-6.53e-6,"MEAN_MOTION_DDOT":0},{"OBJECT_NAME":"STARLINK-5032","OBJECT_ID":"2022-119K","EPOCH":"2026-03-15T00:57:38.236896","MEAN_MOTION":15.09595945,"ECCENTRICITY":9.675e-5,"INCLINATION":53.2186,"RA_OF_ASC_NODE":300.0098,"ARG_OF_PERICENTER":71.7659,"MEAN_ANOMALY":288.3439,"EPHEMERIS_TYPE":0,"CLASSIFICATION_TYPE":"U","NORAD_CAT_ID":53895,"ELEMENT_SET_NO":999,"REV_AT_EPOCH":19249,"BSTAR":0.005019035,"MEAN_MOTION_DOT":0.00082212,"MEAN_MOTION_DDOT":0},{"OBJECT_NAME":"STARLINK-5037","OBJECT_ID":"2022-119L","EPOCH":"2026-03-14T21:37:40.611936","MEAN_MOTION":15.08853364,"ECCENTRICITY":0.00013029,"INCLINATION":53.2175,"RA_OF_ASC_NODE":300.565,"ARG_OF_PERICENTER":85.104,"MEAN_ANOMALY":275.0101,"EPHEMERIS_TYPE":0,"CLASSIFICATION_TYPE":"U","NORAD_CAT_ID":53896,"ELEMENT_SET_NO":999,"REV_AT_EPOCH":19247,"BSTAR":-4.8557918e-5,"MEAN_MOTION_DOT":-1.061e-5,"MEAN_MOTION_DDOT":0},{"OBJECT_NAME":"STARLINK-5035","OBJECT_ID":"2022-119M","EPOCH":"2026-03-14T21:58:54.309504","MEAN_MOTION":15.08836014,"ECCENTRICITY":9.887e-5,"INCLINATION":53.217,"RA_OF_ASC_NODE":300.6509,"ARG_OF_PERICENTER":61.3067,"MEAN_ANOMALY":298.8025,"EPHEMERIS_TYPE":0,"CLASSIFICATION_TYPE":"U","NORAD_CAT_ID":53897,"ELEMENT_SET_NO":999,"REV_AT_EPOCH":19247,"BSTAR":-1.6814991e-5,"MEAN_MOTION_DOT":-5.55e-6,"MEAN_MOTION_DDOT":0},{"OBJECT_NAME":"STARLINK-5044","OBJECT_ID":"2022-119N","EPOCH":"2026-03-14T21:21:46.193472","MEAN_MOTION":15.08842589,"ECCENTRICITY":0.00014153,"INCLINATION":53.2168,"RA_OF_ASC_NODE":300.4952,"ARG_OF_PERICENTER":91.0362,"MEAN_ANOMALY":269.0793,"EPHEMERIS_TYPE":0,"CLASSIFICATION_TYPE":"U","NORAD_CAT_ID":53898,"ELEMENT_SET_NO":999,"REV_AT_EPOCH":19247,"BSTAR":3.2917949e-5,"MEAN_MOTION_DOT":2.36e-6,"MEAN_MOTION_DDOT":0},{"OBJECT_NAME":"STARLINK-5042","OBJECT_ID":"2022-119P","EPOCH":"2026-03-14T21:27:04.306176","MEAN_MOTION":15.08842544,"ECCENTRICITY":0.00013501,"INCLINATION":53.2175,"RA_OF_ASC_NODE":300.517,"ARG_OF_PERICENTER":99.6758,"MEAN_ANOMALY":260.4386,"EPHEMERIS_TYPE":0,"CLASSIFICATION_TYPE":"U","NORAD_CAT_ID":53899,"ELEMENT_SET_NO":999,"REV_AT_EPOCH":19247,"BSTAR":5.2627827e-5,"MEAN_MOTION_DOT":5.5e-6,"MEAN_MOTION_DDOT":0},{"OBJECT_NAME":"STARLINK-5045","OBJECT_ID":"2022-119Q","EPOCH":"2026-03-14T22:46:32.631456","MEAN_MOTION":15.08837657,"ECCENTRICITY":0.00012342,"INCLINATION":53.2177,"RA_OF_ASC_NODE":300.1499,"ARG_OF_PERICENTER":90.1259,"MEAN_ANOMALY":269.9874,"EPHEMERIS_TYPE":0,"CLASSIFICATION_TYPE":"U","NORAD_CAT_ID":53900,"ELEMENT_SET_NO":999,"REV_AT_EPOCH":19248,"BSTAR":-1.4710188e-5,"MEAN_MOTION_DOT":-5.22e-6,"MEAN_MOTION_DDOT":0},{"OBJECT_NAME":"STARLINK-5024","OBJECT_ID":"2022-119R","EPOCH":"2026-03-15T08:00:01.999872","MEAN_MOTION":15.9152677,"ECCENTRICITY":0.00060147,"INCLINATION":53.2,"RA_OF_ASC_NODE":214.0593,"ARG_OF_PERICENTER":338.1277,"MEAN_ANOMALY":108.4512,"EPHEMERIS_TYPE":0,"CLASSIFICATION_TYPE":"U","NORAD_CAT_ID":53901,"ELEMENT_SET_NO":999,"REV_AT_EPOCH":607,"BSTAR":0.00089837986,"MEAN_MOTION_DOT":0.00295029,"MEAN_MOTION_DDOT":4.3665999e-5},{"OBJECT_NAME":"STARLINK-5021","OBJECT_ID":"2022-119S","EPOCH":"2026-03-15T05:09:25.870464","MEAN_MOTION":15.08846208,"ECCENTRICITY":0.00016395,"INCLINATION":53.2149,"RA_OF_ASC_NODE":249.0743,"ARG_OF_PERICENTER":81.1006,"MEAN_ANOMALY":279.0172,"EPHEMERIS_TYPE":0,"CLASSIFICATION_TYPE":"U","NORAD_CAT_ID":53902,"ELEMENT_SET_NO":999,"REV_AT_EPOCH":19322,"BSTAR":8.4142951e-5,"MEAN_MOTION_DOT":1.052e-5,"MEAN_MOTION_DDOT":0},{"OBJECT_NAME":"STARLINK-5022","OBJECT_ID":"2022-119T","EPOCH":"2026-03-14T21:33:45.796608","MEAN_MOTION":15.08845675,"ECCENTRICITY":0.00014326,"INCLINATION":53.2171,"RA_OF_ASC_NODE":300.5448,"ARG_OF_PERICENTER":95.6056,"MEAN_ANOMALY":264.51,"EPHEMERIS_TYPE":0,"CLASSIFICATION_TYPE":"U","NORAD_CAT_ID":53903,"ELEMENT_SET_NO":999,"REV_AT_EPOCH":19247,"BSTAR":4.5835909e-5,"MEAN_MOTION_DOT":4.42e-6,"MEAN_MOTION_DDOT":0},{"OBJECT_NAME":"STARLINK-4787","OBJECT_ID":"2022-119U","EPOCH":"2026-03-14T22:41:15.727488","MEAN_MOTION":15.08835442,"ECCENTRICITY":0.00015009,"INCLINATION":53.2172,"RA_OF_ASC_NODE":300.1287,"ARG_OF_PERICENTER":101.1161,"MEAN_ANOMALY":259,"EPHEMERIS_TYPE":0,"CLASSIFICATION_TYPE":"U","NORAD_CAT_ID":53904,"ELEMENT_SET_NO":999,"REV_AT_EPOCH":19248,"BSTAR":0.00017551882,"MEAN_MOTION_DOT":2.506e-5,"MEAN_MOTION_DDOT":0}]
